METEOSAT-11 (MSG-4)     
1 40732U 15034A   26115.92551288  .00000052  00000+0  00000+0 0  9999
2 40732   3.0710  71.3804 0001603 344.5095 140.8296  1.00263852  6690
ELEKTRO-L 2             
1 41105U 15074A   26115.70682659 -.00000127  00000+0  00000+0 0  9995
2 41105   6.5646  71.1540 0002298 254.2871 128.2279  1.00270542 37987
INSAT-3DR               
1 41752U 16054A   26115.98035965 -.00000090  00000+0  00000+0 0  9993
2 41752   0.1129  86.1844 0011660 195.1084 359.6159  1.00271318 35297
HIMAWARI-9              
1 41836U 16064A   26115.95151301 -.00000288  00000+0  00000+0 0  9996
2 41836   0.0351 130.9871 0000849 265.1317 301.1521  1.00273826 34681
GOES 16                 
1 41866U 16071A   26115.90289280 -.00000104  00000+0  00000+0 0  9997
2 41866   0.2104  85.2605 0001541 248.4731 100.5078  1.00271074 34572
FENGYUN 4A              
1 41882U 16077A   26115.30638583 -.00000369  00000+0  00000+0 0  9992
2 41882   2.1903  80.7930 0008212 141.4993 225.0593  1.00267100 34405
CYGFM05                 
1 41884U 16078A   26115.74481048  .00023465  00000+0  34598-3 0  9999
2 41884  34.9569 247.2436 0007282  14.1610 345.9317 15.54375547520581
CYGFM04                 
1 41885U 16078B   26115.67573239  .00031199  00000+0  39249-3 0  9997
2 41885  34.9323 217.8561 0006125  59.6695 300.4634 15.58598367520796
CYGFM02                 
1 41886U 16078C   26115.70070268  .00032262  00000+0  37080-3 0  9999
2 41886  34.9406 213.5628 0007175  60.9673 299.1771 15.60946063520950
CYGFM01                 
1 41887U 16078D   26115.75513014  .00024675  00000+0  35574-3 0  9991
2 41887  34.9400 248.6375 0007034   7.5780 352.5049 15.54979339520534
CYGFM08                 
1 41888U 16078E   26115.73445212  .00029812  00000+0  39359-3 0  9997
2 41888  34.9432 229.6391 0008159  39.3875 320.7441 15.57308830520789
CYGFM07                 
1 41890U 16078G   26115.69672250  .00026992  00000+0  35570-3 0  9996
2 41890  34.9447 218.2736 0006534  58.4560 301.6802 15.57387079520807
CYGFM03                 
1 41891U 16078H   26115.66766540  .00026350  00000+0  34729-3 0  9993
2 41891  34.9402 220.4225 0005834  44.1998 315.9192 15.57391212520776
FENGYUN 3D              
1 43010U 17072A   26115.92532301 -.00000073  00000+0 -12530-4 0  9991
2 43010  99.0096  89.4142 0001366 155.2438 204.8803 14.19727155437578
NOAA 20 (JPSS-1)        
1 43013U 17073A   26115.84180819  .00000067  00000+0  52739-4 0  9995
2 43013  98.7744  55.7767 0002107  73.3563 286.7844 14.19547502437041
GOES 17                 
1 43226U 18022A   26115.86780985 -.00000195  00000+0  00000+0 0  9990
2 43226   0.8053  86.4106 0000672 269.3830  81.0047  1.00272049 29899
FENGYUN 2H              
1 43491U 18050A   26115.93929295 -.00000140  00000+0  00000+0 0  9992
2 43491   2.8988  79.6569 0001751 159.1021  32.5834  1.00274278 28919
